{"epoch":1784710044,"count":18256,"objects":[{"id":"62685","name":"FLOCK 4G 33","type":"PAYLOAD","l1":"1 62685U 25009CE  26202.15677310  .00004372  00000-0  17367-3 0  9998","l2":"2 62685  97.3937 281.6446 0005189 191.7900 168.3218 15.25841099 83989"},{"id":"66704","name":"FLOCK 4H 1","type":"PAYLOAD","l1":"1 66704U 25276AQ  26202.46216863  .00004777  00000-0  21915-3 0  9999","l2":"2 66704  97.4160 275.6113 0002591 157.3960 202.7390 15.20898808 35645"},{"id":"66705","name":"FLOCK 4H 2","type":"PAYLOAD","l1":"1 66705U 25276AR  26202.63208781  .00006238  00000-0  28290-3 0  9996","l2":"2 66705  97.4157 275.8290 0002118 148.4479 211.6884 15.21177025 35673"},{"id":"66706","name":"FLOCK 4H 3","type":"PAYLOAD","l1":"1 66706U 25276AS  26202.16510801  .00004708  00000-0  21992-3 0  9996","l2":"2 66706  97.4226 275.2916 0002982 219.0249 141.0772 15.20287674 35582"},{"id":"66707","name":"FLOCK 4H 4","type":"PAYLOAD","l1":"1 66707U 25276AT  26202.46530384  .00005103  00000-0  23946-3 0  9999","l2":"2 66707  97.4208 275.4508 0003597 223.7661 136.3289 15.20084629 35625"},{"id":"66708","name":"FLOCK 4H 5","type":"PAYLOAD","l1":"1 66708U 25276AU  26202.19105837  .00004205  00000-0  19305-3 0  9997","l2":"2 66708  97.4158 275.3659 0001668 134.2694 225.8679 15.20946472 35603"},{"id":"66709","name":"FLOCK 4H 6","type":"PAYLOAD","l1":"1 66709U 25276AV  26202.43561445  .00005245  00000-0  24205-3 0  9996","l2":"2 66709  97.4211 275.6516 0003125 181.8668 178.2556 15.20652355 35630"},{"id":"66710","name":"FLOCK 4H 7","type":"PAYLOAD","l1":"1 66710U 25276AW  26202.15506625  .00004987  00000-0  23181-3 0  9990","l2":"2 66710  97.4168 275.1274 0000881 232.5469 127.5686 15.20425391 35581"},{"id":"66711","name":"FLOCK 4H 8","type":"PAYLOAD","l1":"1 66711U 25276AX  26202.47457751  .00006012  00000-0  27787-3 0  9998","l2":"2 66711  97.4206 275.5958 0002222 231.9395 128.1640 15.20539361 35636"},{"id":"66712","name":"FLOCK 4H 9","type":"PAYLOAD","l1":"1 66712U 25276AY  26202.48714047  .00006423  00000-0  29403-3 0  9997","l2":"2 66712  97.4198 275.7049 0003067 188.7779 171.3403 15.20842748 35647"},{"id":"66713","name":"FLOCK 4H 10","type":"PAYLOAD","l1":"1 66713U 25276AZ  26202.18556273  .00004620  00000-0  21633-3 0  9994","l2":"2 66713  97.4174 275.1098 0003359 225.0380 135.0584 15.20209359 35582"},{"id":"66714","name":"FLOCK 4H 11","type":"PAYLOAD","l1":"1 66714U 25276BA  26202.13243221  .00010784  00000-0  45555-3 0  9993","l2":"2 66714  97.4179 275.6797 0001988 212.5303 147.5811 15.23424718 35617"},{"id":"66715","name":"FLOCK 4H 12","type":"PAYLOAD","l1":"1 66715U 25276BB  26202.47407938  .00005862  00000-0  26845-3 0  9990","l2":"2 66715  97.4171 275.6262 0002503 164.9093 195.2217 15.20868298 35956"},{"id":"66716","name":"FLOCK 4H 13","type":"PAYLOAD","l1":"1 66716U 25276BC  26202.51006235  .00005023  00000-0  22986-3 0  9992","l2":"2 66716  97.4207 275.8385 0002296 135.3355 224.8066 15.20966351 35654"},{"id":"66717","name":"FLOCK 4H 14","type":"PAYLOAD","l1":"1 66717U 25276BD  26202.60019843  .00006182  00000-0  27842-3 0  9995","l2":"2 66717  97.4187 275.9769 0002236 135.6864 224.4551 15.21419858 34921"},{"id":"66718","name":"FLOCK 4H 15","type":"PAYLOAD","l1":"1 66718U 25276BE  26202.48397320  .00005935  00000-0  27920-3 0  9993","l2":"2 66718  97.4202 275.4080 0002936 239.7262 120.3682 15.19932968 35622"}]}