{"fetched_at":"2026-07-22T07:09:23.749Z","source":"https://celestrak.org/NORAD/elements/gp.php?GROUP=planet&FORMAT=JSON","constellation":"superdove","records":[{"OBJECT_NAME":"FLOCK 4G-33","OBJECT_ID":"2025-009CE","EPOCH":"2026-07-21T03:45:45.195840","CLASSIFICATION_TYPE":"U","MEAN_MOTION":15.25841099,"ECCENTRICITY":0.00051888,"INCLINATION":97.3937,"RA_OF_ASC_NODE":281.6446,"ARG_OF_PERICENTER":191.79,"MEAN_ANOMALY":168.3218,"EPHEMERIS_TYPE":0,"NORAD_CAT_ID":62685,"ELEMENT_SET_NO":999,"REV_AT_EPOCH":8398,"BSTAR":0.00017367155,"MEAN_MOTION_DOT":0.00004372,"MEAN_MOTION_DDOT":0},{"OBJECT_NAME":"FLOCK 4H-1","OBJECT_ID":"2025-276AQ","EPOCH":"2026-07-21T11:05:31.369632","CLASSIFICATION_TYPE":"U","MEAN_MOTION":15.20898808,"ECCENTRICITY":0.00025913,"INCLINATION":97.416,"RA_OF_ASC_NODE":275.6113,"ARG_OF_PERICENTER":157.396,"MEAN_ANOMALY":202.739,"EPHEMERIS_TYPE":0,"NORAD_CAT_ID":66704,"ELEMENT_SET_NO":999,"REV_AT_EPOCH":3564,"BSTAR":0.0002191513,"MEAN_MOTION_DOT":0.00004777,"MEAN_MOTION_DDOT":0},{"OBJECT_NAME":"FLOCK 4H-2","OBJECT_ID":"2025-276AR","EPOCH":"2026-07-21T15:10:12.386784","CLASSIFICATION_TYPE":"U","MEAN_MOTION":15.21177025,"ECCENTRICITY":0.00021184,"INCLINATION":97.4157,"RA_OF_ASC_NODE":275.829,"ARG_OF_PERICENTER":148.4479,"MEAN_ANOMALY":211.6884,"EPHEMERIS_TYPE":0,"NORAD_CAT_ID":66705,"ELEMENT_SET_NO":999,"REV_AT_EPOCH":3567,"BSTAR":0.00028290379,"MEAN_MOTION_DOT":0.00006238,"MEAN_MOTION_DDOT":0},{"OBJECT_NAME":"FLOCK 4H-3","OBJECT_ID":"2025-276AS","EPOCH":"2026-07-21T03:57:45.332064","CLASSIFICATION_TYPE":"U","MEAN_MOTION":15.20287674,"ECCENTRICITY":0.00029816,"INCLINATION":97.4226,"RA_OF_ASC_NODE":275.2916,"ARG_OF_PERICENTER":219.0249,"MEAN_ANOMALY":141.0772,"EPHEMERIS_TYPE":0,"NORAD_CAT_ID":66706,"ELEMENT_SET_NO":999,"REV_AT_EPOCH":3558,"BSTAR":0.00021992254,"MEAN_MOTION_DOT":0.00004708,"MEAN_MOTION_DDOT":0},{"OBJECT_NAME":"FLOCK 4H-4","OBJECT_ID":"2025-276AT","EPOCH":"2026-07-21T11:10:02.251776","CLASSIFICATION_TYPE":"U","MEAN_MOTION":15.20084629,"ECCENTRICITY":0.00035972,"INCLINATION":97.4208,"RA_OF_ASC_NODE":275.4508,"ARG_OF_PERICENTER":223.7661,"MEAN_ANOMALY":136.3289,"EPHEMERIS_TYPE":0,"NORAD_CAT_ID":66707,"ELEMENT_SET_NO":999,"REV_AT_EPOCH":3562,"BSTAR":0.00023946416,"MEAN_MOTION_DOT":0.00005103,"MEAN_MOTION_DDOT":0},{"OBJECT_NAME":"FLOCK 4H-5","OBJECT_ID":"2025-276AU","EPOCH":"2026-07-21T04:35:07.443168","CLASSIFICATION_TYPE":"U","MEAN_MOTION":15.20946472,"ECCENTRICITY":0.00016676,"INCLINATION":97.4158,"RA_OF_ASC_NODE":275.3659,"ARG_OF_PERICENTER":134.2694,"MEAN_ANOMALY":225.8679,"EPHEMERIS_TYPE":0,"NORAD_CAT_ID":66708,"ELEMENT_SET_NO":999,"REV_AT_EPOCH":3560,"BSTAR":0.00019305236,"MEAN_MOTION_DOT":0.00004205,"MEAN_MOTION_DDOT":0},{"OBJECT_NAME":"FLOCK 4H-6","OBJECT_ID":"2025-276AV","EPOCH":"2026-07-21T10:27:17.088480","CLASSIFICATION_TYPE":"U","MEAN_MOTION":15.20652355,"ECCENTRICITY":0.00031253,"INCLINATION":97.4211,"RA_OF_ASC_NODE":275.6516,"ARG_OF_PERICENTER":181.8668,"MEAN_ANOMALY":178.2556,"EPHEMERIS_TYPE":0,"NORAD_CAT_ID":66709,"ELEMENT_SET_NO":999,"REV_AT_EPOCH":3563,"BSTAR":0.00024204771,"MEAN_MOTION_DOT":0.00005245,"MEAN_MOTION_DDOT":0},{"OBJECT_NAME":"FLOCK 4H-7","OBJECT_ID":"2025-276AW","EPOCH":"2026-07-21T03:43:17.724000","CLASSIFICATION_TYPE":"U","MEAN_MOTION":15.20425391,"ECCENTRICITY":0.00008805,"INCLINATION":97.4168,"RA_OF_ASC_NODE":275.1274,"ARG_OF_PERICENTER":232.5469,"MEAN_ANOMALY":127.5686,"EPHEMERIS_TYPE":0,"NORAD_CAT_ID":66710,"ELEMENT_SET_NO":999,"REV_AT_EPOCH":3558,"BSTAR":0.00023181389,"MEAN_MOTION_DOT":0.00004987,"MEAN_MOTION_DDOT":0},{"OBJECT_NAME":"FLOCK 4H-8","OBJECT_ID":"2025-276AX","EPOCH":"2026-07-21T11:23:23.496864","CLASSIFICATION_TYPE":"U","MEAN_MOTION":15.20539361,"ECCENTRICITY":0.00022223,"INCLINATION":97.4206,"RA_OF_ASC_NODE":275.5958,"ARG_OF_PERICENTER":231.9395,"MEAN_ANOMALY":128.164,"EPHEMERIS_TYPE":0,"NORAD_CAT_ID":66711,"ELEMENT_SET_NO":999,"REV_AT_EPOCH":3563,"BSTAR":0.00027786774,"MEAN_MOTION_DOT":0.00006012,"MEAN_MOTION_DDOT":0},{"OBJECT_NAME":"FLOCK 4H-9","OBJECT_ID":"2025-276AY","EPOCH":"2026-07-21T11:41:28.936608","CLASSIFICATION_TYPE":"U","MEAN_MOTION":15.20842748,"ECCENTRICITY":0.00030671,"INCLINATION":97.4198,"RA_OF_ASC_NODE":275.7049,"ARG_OF_PERICENTER":188.7779,"MEAN_ANOMALY":171.3403,"EPHEMERIS_TYPE":0,"NORAD_CAT_ID":66712,"ELEMENT_SET_NO":999,"REV_AT_EPOCH":3564,"BSTAR":0.00029402899,"MEAN_MOTION_DOT":0.00006423,"MEAN_MOTION_DDOT":0},{"OBJECT_NAME":"FLOCK 4H-10","OBJECT_ID":"2025-276AZ","EPOCH":"2026-07-21T04:27:12.619872","CLASSIFICATION_TYPE":"U","MEAN_MOTION":15.20209359,"ECCENTRICITY":0.00033591,"INCLINATION":97.4174,"RA_OF_ASC_NODE":275.1098,"ARG_OF_PERICENTER":225.038,"MEAN_ANOMALY":135.0584,"EPHEMERIS_TYPE":0,"NORAD_CAT_ID":66713,"ELEMENT_SET_NO":999,"REV_AT_EPOCH":3558,"BSTAR":0.00021633295,"MEAN_MOTION_DOT":0.0000462,"MEAN_MOTION_DDOT":0},{"OBJECT_NAME":"FLOCK 4H-11","OBJECT_ID":"2025-276BA","EPOCH":"2026-07-21T03:10:42.142944","CLASSIFICATION_TYPE":"U","MEAN_MOTION":15.23424718,"ECCENTRICITY":0.00019881,"INCLINATION":97.4179,"RA_OF_ASC_NODE":275.6797,"ARG_OF_PERICENTER":212.5303,"MEAN_ANOMALY":147.5811,"EPHEMERIS_TYPE":0,"NORAD_CAT_ID":66714,"ELEMENT_SET_NO":999,"REV_AT_EPOCH":3561,"BSTAR":0.00045555305,"MEAN_MOTION_DOT":0.00010784,"MEAN_MOTION_DDOT":0},{"OBJECT_NAME":"FLOCK 4H-12","OBJECT_ID":"2025-276BB","EPOCH":"2026-07-21T11:22:40.458432","CLASSIFICATION_TYPE":"U","MEAN_MOTION":15.20868298,"ECCENTRICITY":0.00025028,"INCLINATION":97.4171,"RA_OF_ASC_NODE":275.6262,"ARG_OF_PERICENTER":164.9093,"MEAN_ANOMALY":195.2217,"EPHEMERIS_TYPE":0,"NORAD_CAT_ID":66715,"ELEMENT_SET_NO":999,"REV_AT_EPOCH":3595,"BSTAR":0.00026844549,"MEAN_MOTION_DOT":0.00005862,"MEAN_MOTION_DDOT":0},{"OBJECT_NAME":"FLOCK 4H-13","OBJECT_ID":"2025-276BC","EPOCH":"2026-07-21T12:14:29.387040","CLASSIFICATION_TYPE":"U","MEAN_MOTION":15.20966351,"ECCENTRICITY":0.00022958,"INCLINATION":97.4207,"RA_OF_ASC_NODE":275.8385,"ARG_OF_PERICENTER":135.3355,"MEAN_ANOMALY":224.8066,"EPHEMERIS_TYPE":0,"NORAD_CAT_ID":66716,"ELEMENT_SET_NO":999,"REV_AT_EPOCH":3565,"BSTAR":0.00022985734,"MEAN_MOTION_DOT":0.00005023,"MEAN_MOTION_DDOT":0},{"OBJECT_NAME":"FLOCK 4H-14","OBJECT_ID":"2025-276BD","EPOCH":"2026-07-21T14:24:17.144352","CLASSIFICATION_TYPE":"U","MEAN_MOTION":15.21419858,"ECCENTRICITY":0.00022359,"INCLINATION":97.4187,"RA_OF_ASC_NODE":275.9769,"ARG_OF_PERICENTER":135.6864,"MEAN_ANOMALY":224.4551,"EPHEMERIS_TYPE":0,"NORAD_CAT_ID":66717,"ELEMENT_SET_NO":999,"REV_AT_EPOCH":3492,"BSTAR":0.00027842048,"MEAN_MOTION_DOT":0.00006182,"MEAN_MOTION_DDOT":0},{"OBJECT_NAME":"FLOCK 4H-15","OBJECT_ID":"2025-276BE","EPOCH":"2026-07-21T11:36:55.284480","CLASSIFICATION_TYPE":"U","MEAN_MOTION":15.19932968,"ECCENTRICITY":0.00029364,"INCLINATION":97.4202,"RA_OF_ASC_NODE":275.408,"ARG_OF_PERICENTER":239.7262,"MEAN_ANOMALY":120.3682,"EPHEMERIS_TYPE":0,"NORAD_CAT_ID":66718,"ELEMENT_SET_NO":999,"REV_AT_EPOCH":3562,"BSTAR":0.00027919882,"MEAN_MOTION_DOT":0.00005935,"MEAN_MOTION_DDOT":0}]}
